NORAD_CAT_ID,OBJECT_NAME,OBJECT_TYPE,EPOCH,MEAN_MOTION,ECCENTRICITY,INCLINATION,RA_OF_ASC_NODE,ARG_OF_PERICENTER,MEAN_ANOMALY,BSTAR,MEAN_MOTION_DOT,MEAN_MOTION_DDOT,TLE_LINE0,TLE_LINE1,TLE_LINE2,SEMIMAJOR_AXIS,PERIOD,APOGEE,PERIGEE,DECAYED
49740.0,STARLINK-3226,PAYLOAD,2022-10-23 07:11:34,15.08850903,0.000237,53.2154,286.0229,44.21,315.9082,0.00019767,2.860000000000001e-05,0.0,0 STARLINK-3226,1 49740U 21115S   22296.29970100  .00002860  00000-0  19767-3 0  9992,2 49740  53.2154 286.0229 0002370  44.2100 315.9082 15.08850903 49334,6917.847,95.437,541.352,538.073,0.0
49740.0,STARLINK-3226,PAYLOAD,2022-10-23 16:43:52,15.08857815,0.0002316,53.2156,284.2381,45.0575,315.0605,0.00039042,5.934e-05,0.0,0 STARLINK-3226,1 49740U 21115S   22296.69713654  .00005934  00000-0  39042-3 0  9998,2 49740  53.2156 284.2381 0002316  45.0575 315.0605 15.08857815 49397,6917.826,95.436,541.293,538.089,0.0
49740.0,STARLINK-3226,PAYLOAD,2022-10-24 05:26:57,15.08861384,0.0002126999999999,53.2149,281.8588,50.6615,309.4565,0.00042915,6.552e-05,0.0,0 STARLINK-3226,1 49740U 21115S   22297.22705110  .00006552  00000-0  42915-3 0  9996,2 49740  53.2149 281.8588 0002127  50.6615 309.4565 15.08861384 50589,6917.815,95.436,541.151,538.2090000000002,0.0
49740.0,STARLINK-3226,PAYLOAD,2022-10-24 08:37:43,15.08852152,0.0001948,53.2154,281.2642,43.2212,316.8933,0.00015158,2.126e-05,0.0,0 STARLINK-3226,1 49740U 21115S   22297.35953232  .00002126  00000-0  15158-3 0  9992,2 49740  53.2154 281.2642 0001948  43.2212 316.8933 15.08852152 49493,6917.843000000003,95.437,541.056,538.361,0.0
49740.0,STARLINK-3226,PAYLOAD,2022-10-24 18:10:02,15.08834765,0.0002150999999999,53.2147,279.4792,52.9463,307.1726,-0.00029265,-4.942e-05,0.0,0 STARLINK-3226,1 49740U 21115S   22297.75697821 -.00004942  00000-0 -29265-3 0  9999,2 49740  53.2147 279.4792 0002151  52.9463 307.1726 15.08834765 49552,6917.896,95.438,541.249,538.273,0.0
49740.0,STARLINK-3226,PAYLOAD,2022-10-25 05:17:45,15.08826401,0.0002209,53.2153,277.398,40.8394,319.2763,0.00023956,3.525e-05,0.0,0 STARLINK-3226,1 49740U 21115S   22298.22066463  .00003525  00000-0  23956-3 0  9999,2 49740  53.2153 277.3980 0002209  40.8394 319.2763 15.08826401 49629,6917.922,95.438,541.315,538.259,0.0
49740.0,STARLINK-3226,PAYLOAD,2022-10-25 19:36:14,15.08835839,0.0002273,53.2151,274.7212,44.3206,315.7968,0.00063982,9.908e-05,0.0,0 STARLINK-3226,1 49740U 21115S   22298.81682961  .00009908  00000-0  63982-3 0  9995,2 49740  53.2151 274.7212 0002273  44.3206 315.7968 15.08835839 49711,6917.893,95.438,541.331,538.186,0.0
49740.0,STARLINK-3226,PAYLOAD,2022-10-26 05:08:32,15.08846026,0.0002265,53.2159,272.9377,41.469,318.6473,0.00069407,0.00010777,0.0,0 STARLINK-3226,1 49740U 21115S   22299.21426845  .00010777  00000-0  69407-3 0  9991,2 49740  53.2159 272.9377 0002265  41.4690 318.6473 15.08846026 50880,6917.861999999999,95.437,541.294,538.16,0.0
49740.0,STARLINK-3226,PAYLOAD,2022-10-26 08:19:19,15.08848175,0.0002271,53.2159,272.3429,41.7929,318.3236,0.00064545,0.00010002,0.0,0 STARLINK-3226,1 49740U 21115S   22299.34674784  .00010002  00000-0  64545-3 0  9991,2 49740  53.2159 272.3429 0002271  41.7929 318.3236 15.08848175 49796,6917.855,95.437,541.2909999999998,538.149,0.0
49740.0,STARLINK-3226,PAYLOAD,2022-10-27 03:23:56,15.08848218,0.0002273,53.2159,268.774,43.5768,316.5403,0.00038677,5.874e-05,0.0,0 STARLINK-3226,1 49740U 21115S   22300.14162801  .00005874  00000-0  38677-3 0  9992,2 49740  53.2159 268.7740 0002273  43.5768 316.5403 15.08848218 51027,6917.855,95.437,541.293,538.148,0.0
49740.0,STARLINK-3226,PAYLOAD,2022-10-27 08:10:05,15.08851753,0.0002298,53.2159,267.8817,44.3241,315.7935,0.00041677,6.353e-05,0.0,0 STARLINK-3226,1 49740U 21115S   22300.34034605  .00006353  00000-0  41677-3 0  9991,2 49740  53.2159 267.8817 0002298  44.3241 315.7935 15.08851753 49941,6917.844,95.437,541.299,538.12,0.0
49740.0,STARLINK-3226,PAYLOAD,2022-10-27 14:31:38,15.0885527,0.0002293,53.2157,266.6919,44.8645,315.2532,0.00041723,6.361e-05,0.0,0 STARLINK-3226,1 49740U 21115S   22300.60530367  .00006361  00000-0  41723-3 0  9997,2 49740  53.2157 266.6919 0002293  44.8645 315.2532 15.08855270 49987,6917.834,95.437,541.285,538.112,0.0
49740.0,STARLINK-3226,PAYLOAD,2022-10-28 03:14:43,15.08855318,0.0001833,53.2153,264.3102,56.2306,303.886,0.00039177,5.955e-05,0.0,0 STARLINK-3226,1 49740U 21115S   22301.13522021  .00005955  00000-0  39177-3 0  9992,2 49740  53.2153 264.3102 0001833  56.2306 303.8860 15.08855318 50063,6917.834,95.437,540.967,538.431,0.0
49740.0,STARLINK-3226,PAYLOAD,2022-10-29 06:16:16,15.08851443,0.0002032,53.2162,259.2597,45.488,314.6278,0.00013436,1.851e-05,0.0,0 STARLINK-3226,1 49740U 21115S   22302.26129680  .00001851  00000-0  13436-3 0  9992,2 49740  53.2162 259.2597 0002032  45.4880 314.6278 15.08851443 51343,6917.845,95.437,541.116,538.305,0.0
49740.0,STARLINK-3226,PAYLOAD,2022-10-29 07:51:39,15.08850546,0.0002081,53.2154,258.9612,39.2233,320.8909,0.00013659,1.887e-05,0.0,0 STARLINK-3226,1 49740U 21115S   22302.32753665  .00001887  00000-0  13659-3 0  9991,2 49740  53.2154 258.9612 0002081  39.2233 320.8909 15.08850546 50246,6917.848000000001,95.437,541.153,538.274,0.0
49740.0,STARLINK-3226,PAYLOAD,2022-10-29 20:34:44,15.08843374,0.0002068,53.2153,256.5836,40.7585,319.3561,3.5059e-05,2.7000000000000004e-06,0.0,0 STARLINK-3226,1 49740U 21115S   22302.85745808  .00000270  00000-0  35059-4 0  9993,2 49740  53.2153 256.5836 0002068  40.7585 319.3561 15.08843374 50326,6917.87,95.437,541.1659999999998,538.304,0.0
49740.0,STARLINK-3226,PAYLOAD,2022-10-30 04:31:40,15.08832416,0.0001486,53.216,255.0973,57.2994,302.8141,-0.0001996,-3.463e-05,0.0,0 STARLINK-3226,1 49740U 21115S   22303.18866244 -.00003463  00000-0 -19960-3 0  9999,2 49740  53.2160 255.0973 0001486  57.2994 302.8141 15.08832416 50371,6917.904,95.438,540.797,538.741,0.0
49740.0,STARLINK-3226,PAYLOAD,2022-10-30 22:00:55,15.08832011,0.0002124,53.2157,251.8246,45.2035,314.913,-4.6893e-05,-1.034e-05,0.0,0 STARLINK-3226,1 49740U 21115S   22303.91730977 -.00001034  00000-0 -46893-4 0  9991,2 49740  53.2157 251.8246 0002124  45.2035 314.9130 15.08832011 50482,6917.905,95.438,541.239,538.3,0.0
49740.0,STARLINK-3226,PAYLOAD,2022-10-31 07:33:14,15.08820995,0.0002143,53.2153,250.041,43.7277,316.3885,-0.00013459,-2.429e-05,0.0,0 STARLINK-3226,1 49740U 21115S   22304.31475683 -.00002429  00000-0 -13459-3 0  9996,2 49740  53.2153 250.0410 0002143  43.7277 316.3885 15.08820995 50542,6917.938,95.439,541.286,538.321,0.0
49740.0,STARLINK-3226,PAYLOAD,2022-10-31 13:54:47,15.08830343,0.0002186,53.2158,248.8521,42.0427,318.0733,6.189299999999999e-06,-1.9e-06,0.0,0 STARLINK-3226,1 49740U 21115S   22304.57971707 -.00000190  00000-0  61893-5 0  9991,2 49740  53.2158 248.8521 0002186  42.0427 318.0733 15.08830343 51697,6917.91,95.438,541.2869999999998,538.263,0.0
49740.0,STARLINK-3226,PAYLOAD,2022-11-01 02:37:52,15.08845964,0.0001872,53.2151,246.4727,42.5913,317.5224,0.00051864,7.977e-05,0.0,0 STARLINK-3226,1 49740U 21115S   22305.10963478  .00007977  00000-0  51864-3 0  9991,2 49740  53.2151 246.4727 0001872  42.5913 317.5224 15.08845964 51771,6917.861999999999,95.437,541.0219999999998,538.432,0.0
49740.0,STARLINK-3226,PAYLOAD,2022-11-01 07:24:01,15.08861418,0.0002137,53.215,245.5808,44.6774,315.439,0.0013732,0.00021647,0.0,0 STARLINK-3226,1 49740U 21115S   22305.30835636  .00021647  00000-0  13732-2 0  9998,2 49740  53.2150 245.5808 0002137  44.6774 315.4390 15.08861418 50696,6917.815,95.436,541.158,538.202,0.0
49740.0,STARLINK-3226,PAYLOAD,2022-11-01 13:45:34,15.08863829,0.0002883,53.2157,244.3919,39.0775,321.0425,0.0013253,0.00020882,0.0,0 STARLINK-3226,1 49740U 21115S   22305.57331625  .00020882  00000-0  13253-2 0  9994,2 49740  53.2157 244.3919 0002883  39.0775 321.0425 15.08863829 50735,6917.808000000001,95.436,541.6669999999998,537.678,0.0
49740.0,STARLINK-3226,PAYLOAD,2022-11-02 04:04:02,15.08856776,0.0002011,53.2159,241.7154,49.7481,310.3687,0.00043228,6.601e-05,0.0,0 STARLINK-3226,1 49740U 21115S   22306.16947100  .00006601  00000-0  43228-3 0  9990,2 49740  53.2159 241.7154 0002011  49.7481 310.3687 15.08856776 51931,6917.829000000002,95.436,541.085,538.303,0.0
49740.0,STARLINK-3226,PAYLOAD,2022-11-02 07:14:48,15.08856358,0.0001968,53.2156,241.1201,50.7575,309.3592,0.00036099,5.464e-05,0.0,0 STARLINK-3226,1 49740U 21115S   22306.30194984  .00005464  00000-0  36099-3 0  9994,2 49740  53.2156 241.1201 0001968  50.7575 309.3592 15.08856358 50849,6917.83,95.437,541.057,538.3340000000002,0.0
49740.0,STARLINK-3226,PAYLOAD,2022-11-02 19:57:54,15.08840707,0.0002269,53.2153,238.7408,42.8876,317.2293,9.8152e-05,1.274e-05,0.0,0 STARLINK-3226,1 49740U 21115S   22306.83187750  .00001274  00000-0  98152-4 0  9999,2 49740  53.2153 238.7408 0002269  42.8876 317.2293 15.08840707 52038,6917.878000000002,95.438,541.313,538.174,0.0
49740.0,STARLINK-3226,PAYLOAD,2022-11-03 00:44:03,15.08831818,0.000194,53.2157,237.8488,43.5664,316.5481,-5.0043e-05,-1.084e-05,0.0,0 STARLINK-3226,1 49740U 21115S   22307.03060001 -.00001084  00000-0 -50043-4 0  9999,2 49740  53.2157 237.8488 0001940  43.5664 316.5481 15.08831818 52065,6917.905,95.438,541.112,538.428,0.0
49740.0,STARLINK-3226,PAYLOAD,2022-11-03 05:30:13,15.08836469,0.0001998,53.2155,236.9565,44.2521,315.8631,0.00016876,2.398e-05,0.0,0 STARLINK-3226,1 49740U 21115S   22307.22932067  .00002398  00000-0  16876-3 0  9992,2 49740  53.2155 236.9565 0001998  44.2521 315.8631 15.08836469 50987,6917.891,95.438,541.138,538.374,0.0
49740.0,STARLINK-3226,PAYLOAD,2022-11-03 19:48:41,15.08861931,0.000186,53.2165,234.2805,40.4184,319.6946,0.00099161,0.00015538,0.0,0 STARLINK-3226,1 49740U 21115S   22307.82547515  .00015538  00000-0  99161-3 0  9996,2 49740  53.2165 234.2805 0001860  40.4184 319.6946 15.08861931 52184,6917.813,95.436,540.965,538.3919999999998,0.0
